[{"OBJECT_NAME":"TRANSPORTER-11 OBJECT A","OBJECT_ID":"2024-149A","EPOCH":"2026-03-09T17:54:54.302112","MEAN_MOTION":15.31141332,"ECCENTRICITY":0.00031096,"INCLINATION":97.378,"RA_OF_ASC_NODE":149.0949,"ARG_OF_PERICENTER":191.001,"MEAN_ANOMALY":169.1164,"EPHEMERIS_TYPE":0,"CLASSIFICATION_TYPE":"U","NORAD_CAT_ID":60468,"ELEMENT_SET_NO":999,"REV_AT_EPOCH":8683,"BSTAR":0.00036053677,"MEAN_MOTION_DOT":0.00010774,"MEAN_MOTION_DDOT":0},{"OBJECT_NAME":"STARLINK-35345","OBJECT_ID":"2025-221L","EPOCH":"2026-03-09T08:26:54.615264","MEAN_MOTION":15.30204197,"ECCENTRICITY":0.00012905,"INCLINATION":53.1584,"RA_OF_ASC_NODE":89.7746,"ARG_OF_PERICENTER":88.4744,"MEAN_ANOMALY":271.6405,"EPHEMERIS_TYPE":0,"CLASSIFICATION_TYPE":"U","NORAD_CAT_ID":65833,"ELEMENT_SET_NO":999,"REV_AT_EPOCH":2603,"BSTAR":0.001009766,"MEAN_MOTION_DOT":0.00029671,"MEAN_MOTION_DDOT":0}]
